{"object":{"prefix":null,"orbit_class":{"code":"TNO","name":"TransNeptunian Object"},"spkid":"20050000","des":"50000","neo":false,"fullname":"50000 Quaoar (2002 LM60)","pha":false,"kind":"an","orbit_id":"51","shortname":"50000 Quaoar"},"signature":{"source":"NASA/JPL Small-Body Database (SBDB) API","version":"1.3"},"orbit":{"two_body":null,"rms":".38953","moid":"40.6315","producer":"Otto Matic","comment":null,"condition_code":"0","first_obs":"1954-05-25","moid_jup":"36.6709","elements":[{"sigma":"1.5997E-6","label":"e","units":null,"title":"eccentricity","name":"e","value":".03520023677935285"},{"sigma":"2.8661E-5","label":"a","units":"au","name":"a","title":"semi-major axis","value":"43.15617648834794"},{"units":"au","title":"perihelion distance","name":"q","value":"41.63706885746655","sigma":"6.9358E-5","label":"q"},{"value":"7.991575801906905","title":"inclination; angle with respect to x-y ecliptic plane","name":"i","units":"deg","label":"i","sigma":"6.7595E-7"},{"sigma":"2.8211E-5","label":"node","units":"deg","name":"om","title":"longitude of the ascending node","value":"188.9191248447958"},{"sigma":".00089988","label":"peri","units":"deg","value":"163.2090510089555","name":"w","title":"argument of perihelion"},{"label":"M","sigma":".00083139","value":"292.8487574745446","title":"mean anomaly","name":"ma","units":"deg"},{"units":"TDB","value":"2480516.376493195825","name":"tp","title":"time of perihelion passage","sigma":".22128","label":"tp"},{"units":"d","value":"103553.0434885775","name":"per","title":"sidereal orbital period","sigma":".10316","label":"period"},{"title":"mean motion","name":"n","value":".003476479182765016","units":"deg/d","label":"n","sigma":"3.4632E-9"},{"label":"Q","sigma":"2.967E-5","value":"44.67528411922933","name":"ad","title":"aphelion distance","units":"au"}],"data_arc":"26031","equinox":"J2000","orbit_id":"51","not_valid_before":null,"not_valid_after":null,"last_obs":"2025-08-31","n_obs_used":1059,"pe_used":"DE441","model_pars":[],"t_jup":"5.821","n_del_obs_used":null,"source":"JPL","n_dop_obs_used":null,"epoch":"2461200.5","soln_date":"2026-06-06 04:23:41","sb_used":"SB441-N16","cov_epoch":"2457933.5"}}
